ONEWEB-0634             
1 56075U 23043AF  25347.41690312  .00000034  00000+0  56697-4 0  9995
2 56075  87.8995 296.3016 0001496  72.6405 287.4889 13.15549659131977
ONEWEB-0635             
1 56076U 23043AG  25347.56424261  .00000111  00000+0  26141-3 0  9996
2 56076  87.8991 296.2262 0001962  85.2770 274.8585 13.15551160132029
ONEWEB-0636             
1 56077U 23043AH  25347.55632655 -.00000129  00000+0 -37680-3 0  9995
2 56077  87.8990 296.2454 0001947  84.6035 275.5317 13.15548221132005
ONEWEB-0637             
1 56078U 23043AJ  25347.39788390  .00000141  00000+0  33994-3 0  9992
2 56078  87.8993 296.2933 0001582  85.8369 274.2942 13.15550709132003
ONEWEB-0647             
1 56079U 23043AK  25347.39313950  .00000233  00000+0  58607-3 0  9999
2 56079  87.8991 296.3075 0001946  79.2931 280.8418 13.15549581131990
ONEWEB-0651             
1 56080U 23043AL  25347.61654130  .00000137  00000+0  32949-3 0  9998
2 56080  87.8993 296.2563 0001802  87.3655 272.7681 13.15550834133222
ONEWEB-0718             
1 56081U 23043AM  25347.61180659  .00000149  00000+0  36183-3 0  9996
2 56081  87.8992 296.2376 0001321  66.4847 293.6422 13.15548649132035
ONEWEB-0561             
1 56710U 23068A   25347.44211538  .00000019  00000+0  15651-4 0  9998
2 56710  87.9195 311.4937 0002232  87.9982 272.1407 13.20769928124984
